1 29155U 06018A   12049.40404028 -.00000273 +00000-0 +10000-3 0 09598
2 29155 000.4393 080.4973 0002640 320.8701 177.1046 01.00265871021040